[{"OBJECT_NAME":"STARLINK-35959","OBJECT_ID":"2025-280G","EPOCH":"2026-03-09T22:45:14.984640","MEAN_MOTION":14.9832818,"ECCENTRICITY":0.00025614,"INCLINATION":70.0022,"RA_OF_ASC_NODE":333.84,"ARG_OF_PERICENTER":273.0904,"MEAN_ANOMALY":86.9962,"EPHEMERIS_TYPE":0,"CLASSIFICATION_TYPE":"U","NORAD_CAT_ID":66827,"ELEMENT_SET_NO":999,"REV_AT_EPOCH":1611,"BSTAR":0.0002026814,"MEAN_MOTION_DOT":2.326e-5,"MEAN_MOTION_DDOT":0},{"OBJECT_NAME":"CZ-2C R\/B","OBJECT_ID":"2017-058D","EPOCH":"2026-03-09T16:59:52.285056","MEAN_MOTION":14.86156535,"ECCENTRICITY":0.00586876,"INCLINATION":34.9248,"RA_OF_ASC_NODE":220.8094,"ARG_OF_PERICENTER":138.3412,"MEAN_ANOMALY":222.178,"EPHEMERIS_TYPE":0,"CLASSIFICATION_TYPE":"U","NORAD_CAT_ID":42948,"ELEMENT_SET_NO":999,"REV_AT_EPOCH":45742,"BSTAR":0.00024135998,"MEAN_MOTION_DOT":2.199e-5,"MEAN_MOTION_DDOT":0}]
